NORAD_CAT_ID,OBJECT_NAME,OBJECT_TYPE,EPOCH,MEAN_MOTION,ECCENTRICITY,INCLINATION,RA_OF_ASC_NODE,ARG_OF_PERICENTER,MEAN_ANOMALY,BSTAR,MEAN_MOTION_DOT,MEAN_MOTION_DDOT,TLE_LINE0,TLE_LINE1,TLE_LINE2,SEMIMAJOR_AXIS,PERIOD,APOGEE,PERIGEE,DECAYED
55312.0,STARLINK-5296,PAYLOAD,2024-07-30 22:25:19,14.98343687,0.0003278,70.0,43.6945,268.7871,91.2913,-5.5815e-05,-7.59e-06,0.0,0 STARLINK-5296,1 55312U 23010AV  24212.93425457 -.00000759  00000-0 -55815-4 0  9993,2 55312  70.0000  43.6945 0003278 268.7871  91.2913 14.98343687 86759,6950.151,96.106,574.294,569.737,0.0
55312.0,STARLINK-5296,PAYLOAD,2024-07-31 12:50:33,14.98327293,0.0003193,70.0004,42.1799,270.3676,89.7117,-6.8148e-06,-1.74e-06,0.0,0 STARLINK-5296,1 55312U 23010AV  24213.53510452 -.00000174  00000-0 -68148-5 0  9995,2 55312  70.0004  42.1799 0003193 270.3676  89.7117 14.98327293 85653,6950.201,96.107,574.285,569.847,0.0
55312.0,STARLINK-5296,PAYLOAD,2024-07-31 14:26:41,14.98327823,0.0003192,70.0005,42.0115,270.2536,89.8257,-1.8757e-06,-1.15e-06,0.0,0 STARLINK-5296,1 55312U 23010AV  24213.60186409 -.00000115  00000-0 -18757-5 0  9990,2 55312  70.0005  42.0115 0003192 270.2536  89.8257 14.98327823 86856,6950.2,96.107,574.283,569.846,0.0
55312.0,STARLINK-5296,PAYLOAD,2024-07-31 22:27:21,14.98330531,0.0003189,70.0003,41.1691,267.9122,92.1672,3.6231e-05,3.39e-06,0.0,0 STARLINK-5296,1 55312U 23010AV  24213.93566159  .00000339  00000-0  36231-4 0  9992,2 55312  70.0003  41.1691 0003189 267.9122  92.1672 14.98330531 86907,6950.191,96.107,574.273,569.84,0.0
55312.0,STARLINK-5296,PAYLOAD,2024-08-01 11:16:25,14.983372,0.0003242,70.0001,39.8225,267.7288,92.35,9.6958e-05,1.064e-05,0.0,0 STARLINK-5296,1 55312U 23010AV  24214.46973510  .00001064  00000-0  96958-4 0  9992,2 55312  70.0001  39.8225 0003242 267.7288  92.3500 14.98337200 85791,6950.171,96.107,574.289,569.782,0.0
55312.0,STARLINK-5296,PAYLOAD,2024-08-01 22:29:20,14.98344778,0.0003244,70.0002,38.6442,267.8619,92.2168,0.00013765,1.55e-05,0.0,0 STARLINK-5296,1 55312U 23010AV  24214.93704695  .00001550  00000-0  13765-3 0  9994,2 55312  70.0002  38.6442 0003244 267.8619  92.2168 14.98344778 87059,6950.147,96.106,574.267,569.758,0.0
55312.0,STARLINK-5296,PAYLOAD,2024-08-02 12:54:34,14.98350832,0.0002412,70.0022,37.1301,270.2211,89.8672,-0.00033849,-4.131e-05,0.0,0 STARLINK-5296,1 55312U 23010AV  24215.53789544 -.00004131  00000-0 -33849-3 0  9992,2 55312  70.0022  37.1301 0002412 270.2211  89.8672 14.98350832 85958,6950.128,96.106,573.67,570.317,0.0
55312.0,STARLINK-5296,PAYLOAD,2024-08-02 14:30:42,14.98343106,0.0002547,70.0019,36.962,266.9073,93.1794,-0.00025438,-3.128e-05,0.0,0 STARLINK-5296,1 55312U 23010AV  24215.60465742 -.00003128  00000-0 -25438-3 0  9991,2 55312  70.0019  36.9620 0002547 266.9073  93.1794 14.98343106 87155,6950.152,96.106,573.788,570.247,0.0
55312.0,STARLINK-5296,PAYLOAD,2024-08-02 20:55:15,14.98323079,0.0002929,70.0014,36.2896,260.8651,99.2177,-1.2293e-05,-2.4e-06,0.0,0 STARLINK-5296,1 55312U 23010AV  24215.87170447 -.00000240  00000-0 -12293-4 0  9993,2 55312  70.0014  36.2896 0002929 260.8651  99.2177 14.98323079 86009,6950.214,96.107,574.115,570.044,0.0
55312.0,STARLINK-5296,PAYLOAD,2024-08-02 22:31:23,14.9832283,0.0002923,70.0013,36.1212,261.9592,98.1236,-1.5806e-05,-2.82e-06,0.0,0 STARLINK-5296,1 55312U 23010AV  24215.93846499 -.00000282  00000-0 -15806-4 0  9996,2 55312  70.0013  36.1212 0002923 261.9592  98.1236 14.98322830 87200,6950.215,96.107,574.112,570.049,0.0
55312.0,STARLINK-5296,PAYLOAD,2024-08-03 04:55:55,14.98333501,0.0002973,70.0014,35.4475,263.0997,96.9824,-6.8084e-05,-9.05e-06,0.0,0 STARLINK-5296,1 55312U 23010AV  24216.20549973 -.00000905  00000-0 -68084-4 0  9992,2 55312  70.0014  35.4475 0002973 263.0997  96.9824 14.98333501 86059,6950.182,96.107,574.113,569.981,0.0
55312.0,STARLINK-5296,PAYLOAD,2024-08-03 14:32:43,14.98337362,0.0003402,70.0001,34.4362,269.1354,90.9415,-3.6816e-05,-5.32e-06,0.0,0 STARLINK-5296,1 55312U 23010AV  24216.60605557 -.00000532  00000-0 -36816-4 0  9991,2 55312  70.0001  34.4362 0003402 269.1354  90.9415 14.98337362 87309,6950.17,96.107,574.4,569.671,0.0
55312.0,STARLINK-5296,PAYLOAD,2024-08-03 20:57:15,14.983411,0.0003226,70.0005,33.763,270.9206,89.1583,3.6457e-05,3.42e-06,0.0,0 STARLINK-5296,1 55312U 23010AV  24216.87309062  .00000342  00000-0  36457-4 0  9990,2 55312  70.0005  33.7630 0003226 270.9206  89.1583 14.98341100 86156,6950.159,96.106,574.266,569.781,0.0
55312.0,STARLINK-5296,PAYLOAD,2024-08-03 22:33:23,14.98341872,0.0003222,70.0005,33.5946,270.6852,89.3938,4.6113e-05,4.57e-06,0.0,0 STARLINK-5296,1 55312U 23010AV  24216.93984959  .00000457  00000-0  46113-4 0  9998,2 55312  70.0005  33.5946 0003222 270.6852  89.3938 14.98341872 87359,6950.156,96.106,574.261,569.782,0.0
55312.0,STARLINK-5296,PAYLOAD,2024-08-04 12:58:36,14.98325254,0.0003128,70.0007,32.08,270.2665,89.8135,7.0116e-05,7.44e-06,0.0,0 STARLINK-5296,1 55312U 23010AV  24217.54069916  .00000744  00000-0  70116-4 0  9992,2 55312  70.0007  32.0800 0003128 270.2665  89.8135 14.98325254 86255,6950.208,96.107,574.247,569.899,0.0
55312.0,STARLINK-5296,PAYLOAD,2024-08-04 14:34:44,14.98325313,0.000313,70.0007,31.9116,270.2723,89.8077,6.8809e-05,7.28e-06,0.0,0 STARLINK-5296,1 55312U 23010AV  24217.60745932  .00000728  00000-0  68809-4 0  9996,2 55312  70.0007  31.9116 0003130 270.2723  89.8077 14.98325313 87455,6950.207,96.107,574.248,569.897,0.0
55312.0,STARLINK-5296,PAYLOAD,2024-08-04 20:59:16,14.98334533,0.00031,70.0007,31.2385,269.9336,90.1468,0.00016935,1.928e-05,0.0,0 STARLINK-5296,1 55312U 23010AV  24217.87449182  .00001928  00000-0  16935-3 0  9998,2 55312  70.0007  31.2385 0003100 269.9336  90.1468 14.98334533 86304,6950.179,96.107,574.198,569.889,0.0
55312.0,STARLINK-5296,PAYLOAD,2024-08-05 04:59:56,14.98328981,0.0003257,70.0003,30.3976,269.0103,91.0683,5.2194e-05,5.3e-06,0.0,0 STARLINK-5296,1 55312U 23010AV  24218.20829808  .00000530  00000-0  52194-4 0  9999,2 55312  70.0003  30.3976 0003257 269.0103  91.0683 14.98328981 86356,6950.196,96.107,574.325,569.797,0.0
55312.0,STARLINK-5296,PAYLOAD,2024-08-05 21:01:17,14.9833072,0.0003203,70.0002,28.7135,268.9835,91.0957,-0.00013264,-1.675e-05,0.0,0 STARLINK-5296,1 55312U 23010AV  24218.87590208 -.00001675  00000-0 -13264-3 0  9998,2 55312  70.0002  28.7135 0003203 268.9835  91.0957 14.98330720 87645,6950.191,96.107,574.282,569.83,0.0
55312.0,STARLINK-5296,PAYLOAD,2024-08-06 05:01:58,14.9832936,0.000313,70.0009,27.87,268.7974,91.2826,-2.3356e-05,-3.72e-06,0.0,0 STARLINK-5296,1 55312U 23010AV  24219.20970113 -.00000372  00000-0 -23356-4 0  9990,2 55312  70.0009  27.8700 0003130 268.7974  91.2826 14.98329360 86500,6950.195,96.107,574.235,569.884,0.0
55312.0,STARLINK-5296,PAYLOAD,2024-08-06 14:38:46,14.9833064,0.0003226,70.0003,26.8618,269.2187,90.8603,0.00010803,1.196e-05,0.0,0 STARLINK-5296,1 55312U 23010AV  24219.61025735  .00001196  00000-0  10803-3 0  9991,2 55312  70.0003  26.8618 0003226 269.2187  90.8603 14.98330640 87758,6950.191,96.107,574.298,569.814,0.0
55312.0,STARLINK-5296,PAYLOAD,2024-08-06 21:03:18,14.98336526,0.0003197,70.0006,26.1884,268.8861,91.1932,0.0001347,1.515e-05,0.0,0 STARLINK-5296,1 55312U 23010AV  24219.87729309  .00001515  00000-0  13470-3 0  9995,2 55312  70.0006  26.1884 0003197 268.8861  91.1932 14.98336526 86601,6950.173,96.107,574.26,569.816,0.0
55312.0,STARLINK-5296,PAYLOAD,2024-08-07 13:04:38,14.98339777,0.0003294,70.001,24.5049,269.6918,90.3864,0.00029502,3.43e-05,0.0,0 STARLINK-5296,1 55312U 23010AV  24220.54488572  .00003430  00000-0  29502-3 0  9996,2 55312  70.0010  24.5049 0003294 269.6918  90.3864 14.98339777 87899,6950.163,96.106,574.317,569.738,0.0
55312.0,STARLINK-5296,PAYLOAD,2024-08-07 19:29:09,14.98350947,0.0003004,70.0015,23.8313,267.3223,92.7593,0.00052521,6.183e-05,0.0,0 STARLINK-5296,1 55312U 23010AV  24220.81191309  .00006183  00000-0  52521-3 0  9990,2 55312  70.0015  23.8313 0003004 267.3223  92.7593 14.98350947 86743,6950.128,96.106,574.081,569.905,0.0
55312.0,STARLINK-5296,PAYLOAD,2024-08-07 21:05:16,14.98360525,0.0003365,70.0007,23.6636,269.2052,90.8721,0.00045769,5.377e-05,0.0,0 STARLINK-5296,1 55312U 23010AV  24220.87866726  .00005377  00000-0  45769-3 0  9998,2 55312  70.0007  23.6636 0003365 269.2052  90.8721 14.98360525 87949,6950.098,96.105,574.302,569.625,0.0
55312.0,STARLINK-5296,PAYLOAD,2024-08-08 13:06:40,14.98324414,0.0003692,70.001,21.9803,279.6292,80.445,-4.726e-05,-6.57e-06,0.0,0 STARLINK-5296,1 55312U 23010AV  24221.54630097 -.00000657  00000-0 -47260-4 0  9990,2 55312  70.0010  21.9803 0003692 279.6292  80.4450 14.98324414 88047,6950.21,96.107,574.641,569.509,0.0
55312.0,STARLINK-5296,PAYLOAD,2024-08-08 21:07:19,14.98329433,0.0003489,70.0024,21.1382,273.3752,86.7008,-0.00013721,-1.73e-05,0.0,0 STARLINK-5296,1 55312U 23010AV  24221.88009074 -.00001730  00000-0 -13721-3 0  9999,2 55312  70.0024  21.1382 0003489 273.3752  86.7008 14.98329433 86909,6950.195,96.107,574.485,569.635,0.0
55312.0,STARLINK-5296,PAYLOAD,2024-08-09 13:08:40,14.98337198,0.0003577,70.0024,19.4563,270.8592,89.2157,-0.00016793,-2.097e-05,0.0,0 STARLINK-5296,1 55312U 23010AV  24222.54768690 -.00002097  00000-0 -16793-3 0  9998,2 55312  70.0024  19.4563 0003577 270.8592  89.2157 14.98337198 88195,6950.171,96.107,574.522,569.55,0.0
55312.0,STARLINK-5296,PAYLOAD,2024-08-09 19:33:12,14.98342342,0.0003356,70.0035,18.7824,274.6454,85.4322,0.00036164,4.226e-05,0.0,0 STARLINK-5296,1 55312U 23010AV  24222.81472625  .00004226  00000-0  36164-3 0  9996,2 55312  70.0035  18.7824 0003356 274.6454  85.4322 14.98342342 87045,6950.155,96.106,574.352,569.687,0.0
55312.0,STARLINK-5296,PAYLOAD,2024-08-10 13:10:41,14.98330929,0.0003214,70.004,16.9311,275.4739,84.6053,0.00033927,3.958e-05,0.0,0 STARLINK-5296,1 55312U 23010AV  24223.54909348  .00003958  00000-0  33927-3 0  9999,2 55312  70.0040  16.9311 0003214 275.4739  84.6053 14.98330929 87152,6950.19,96.107,574.289,569.821,0.0
